INTERCOSMOS 24          
1 20261U 89080A   25170.51219445  .00001142  00000+0  33305-3 0  9996
2 20261  82.6056 275.5343 1190499 183.2320 176.0560 12.59040249633262
SL-14 R/B               
1 20262U 89080C   25169.74540030  .00000327  00000+0  89454-4 0  9998
2 20262  82.5939 342.6735 1231662  68.0589 304.6686 12.50309795627163
DELTA 1 R/B             
1 20323U 89089B   25170.10747705  .00000246  00000+0  70102-4 0  9995
2 20323  97.1043  54.0915 0067906 234.4281 125.0575 14.50400438878054
ARIANE 40 R/B           
1 20443U 90005H   25170.14250190  .00000219  00000+0  83701-4 0  9998
2 20443  98.3457 233.0707 0008841 278.2126  81.8059 14.39642279855143
DELTA 2 R/B(1)          
1 20453U 90008B   25169.95368523  .00026923  00000+0  60645-3 0  9990
2 20453  35.6093  70.2162 0139040  17.3136 343.2271 15.32717334885399
COSMOS 2058             
1 20465U 90010A   25170.10490923  .00003082  00000+0  19359-3 0  9992
2 20465  82.4759 306.4449 0010242 160.5407 199.6214 15.08897988923577
SL-14 R/B               
1 20466U 90010B   25170.41419138  .00000412  00000+0  47207-4 0  9994
2 20466  82.5018 154.5903 0021537  87.7941 272.5740 14.83263474910510
SL-14 R/B               
1 20511U 90018B   25169.57167161  .00000379  00000+0  44958-4 0  9996
2 20511  82.5214 109.9191 0015032 238.5760 121.3985 14.81848979883462
HST                     
1 20580U 90037B   25169.94317005  .00005179  00000+0  19140-3 0  9995
2 20580  28.4692  33.0120 0002579 108.2735 251.8140 15.25343733732959
SL-16 R/B               
1 20625U 90046B   25170.15363376  .00000142  00000+0  98149-4 0  9994
2 20625  70.9977 131.3621 0014782 337.1227  22.9235 14.14963331811367
COSMOS 2084             
1 20663U 90055A   25170.47309134  .00001818  00000+0  14175-3 0  9990
2 20663  62.7888 151.9029 0060583 154.7421 205.6663 15.03699346896727
SL-6 R/B(2)             
1 20666U 90055D   25170.13110746  .00001448  00000+0  12417-3 0  9991
2 20666  62.7835  68.9443 0026188 191.9315 168.1167 15.02043249898051
SL-8 R/B                
1 20775U 90078B   25169.98410917  .00011186  00000+0  37026-3 0  9994
2 20775  82.9075 126.3845 0401985 173.5874 187.0721 14.78410122770195
SL-8 R/B                
1 21088U 91006B   25170.52404775  .00000126  00000+0  11089-3 0  9994
2 21088  82.9424   5.8170 0023640  54.4267 329.0462 13.77458520728111
OKEAN-3                 
1 21397U 91039A   25169.89792485  .00002088  00000+0  15370-3 0  9995
2 21397  82.5168 231.9805 0015907 143.4337 216.7978 15.02787786825397
COSMOS 2151             
1 21422U 91042A   25170.42057623  .00001607  00000+0  13084-3 0  9993
2 21422  82.4968 337.3010 0011456 224.5835 135.4468 14.98859134844899
SL-14 R/B               
1 21423U 91042B   25169.77304996  .00000398  00000+0  47659-4 0  9990
2 21423  82.4932 107.6353 0017976  32.9100 327.3228 14.81547752813993
ERS-1                   
1 21574U 91050A   25169.60115711  .00000259  00000+0  98273-4 0  9997
2 21574  98.7910 176.1605 0030839 265.5071  94.2592 14.39200907777748
ARIANE 40 R/B           
1 21610U 91050F   25169.86354530  .00000271  00000+0  94174-4 0  9990
2 21610  98.2390 226.4181 0003998 137.2501 222.9001 14.42640072781221
INTERCOSMOS 25          
1 21819U 91086A   25170.29962381  .00002431  00000+0  48323-3 0  9992
2 21819  82.6040 109.1657 1489703 324.4310  26.5752 12.11070126464801
SL-8 R/B                
1 21876U 92008B   25170.10891316  .00000059  00000+0  44491-4 0  9996
2 21876  82.9269 103.8059 0035322 148.7408 223.0355 13.75933849673407
SL-8 R/B                
1 21938U 92020B   25169.77949090  .00000159  00000+0  14897-3 0  9990
2 21938  82.9304 349.7606 0028077 316.5639  53.7842 13.75509749664851
USA 81                  
1 21949U 92023A   25169.86397117  .00000171  00000+0  55888-4 0  9992
2 21949  85.0076 283.6109 0002426 109.7866 250.3588 14.32246314 57028
COSMOS 2219             
1 22219U 92076A   25170.36906985  .00000085  00000+0  69246-4 0  9994
2 22219  71.0579 208.5024 0020007 244.5987 115.3065 14.14023246681481
SL-16 R/B               
1 22220U 92076B   25169.85031551  .00000247  00000+0  14689-3 0  9996
2 22220  71.0006  24.1251 0011533 145.1754 225.8552 14.16806376684468
COSMOS 2221             
1 22236U 92080A   25169.74797757  .00001527  00000+0  13752-3 0  9995
2 22236  82.5037 171.5683 0014710   6.1740 353.9659 14.94893680741345
SL-16 R/B               
1 22285U 92093B   25170.06414563 -.00000169  00000+0 -62428-4 0  9999
2 22285  71.0196 197.6633 0005149 323.5917  36.4855 14.15395352676175
COSMOS 2228             
1 22286U 92094A   25169.39198351  .00001845  00000+0  16273-3 0  9995
2 22286  82.5181 130.0535 0020241 109.7054 250.6354 14.95729793736534
SL-16 R/B               
1 22566U 93016B   25169.93710313 -.00000149  00000+0 -51893-4 0  9995
2 22566  71.0078  49.1214 0010280 352.6720   7.4251 14.15256844664851
COSMOS 2242             
1 22626U 93024A   25169.46961985  .00001632  00000+0  14576-3 0  9994
2 22626  82.5185 159.1096 0018423 111.8098 248.5086 14.95180350740893
SL-16 R/B               
1 22803U 93059B   25170.34486899  .00000221  00000+0  13309-3 0  9990
2 22803  70.9888 206.4445 0019330 253.7028 106.1970 14.17176718642486
ARIANE 40 R/B           
1 22830U 93061H   25170.41873645  .00000165  00000+0  76508-4 0  9998
2 22830  98.5266 238.9518 0010315 349.9681  10.1296 14.32666705656656
COSMOS 2278             
1 23087U 94023A   25169.79055377  .00000305  00000+0  18430-3 0  9990
2 23087  71.0544   7.1907 0007079  66.8318 293.3549 14.14304904607493
SL-16 R/B               
1 23088U 94023B   25169.67654555 -.00000061  00000+0 -70315-5 0  9994
2 23088  70.9996 265.3160 0004481 311.5421  48.5317 14.14964096608747
SL-16 R/B               
1 23343U 94074B   25170.37544612  .00000400  00000+0  60709-4 0  9995
2 23343  97.7386 206.4526 0006760  11.8582 359.0233 14.79048486648538
SL-16 R/B               
1 23405U 94077B   25170.32640192 -.00000258  00000+0 -10768-3 0  9994
2 23405  70.9809 186.5340 0004203 236.2070 123.8653 14.15520265579230
ARIANE 40+ R/B          
1 23561U 95021B   25170.11792433  .00000238  00000+0  90355-4 0  9997
2 23561  98.4832 239.6455 0006322 201.4692 170.0286 14.39536290581543
SL-16 R/B               
1 23705U 95058B   25170.32030978  .00000214  00000+0  13384-3 0  9999
2 23705  71.0215  13.1764 0012181 170.3409 189.7951 14.15449055530886
SL-16 R/B               
1 24298U 96051B   25169.85850469 -.00000159  00000+0 -59289-4 0  9997
2 24298  70.7682  13.6097 0015389 173.0320 187.1017 14.12414769484397
ORBVIEW 2 (SEASTAR)     
1 24883U 97037A   25169.71145838  .00000265  00000+0  10893-3 0  9997
2 24883  98.8266 322.5566 0003293 110.1369 250.0170 14.35256562470604
SL-16 R/B               
1 25400U 98043G   25169.69912858  .00000055  00000+0  41685-4 0  9993
2 25400  98.7879 116.8126 0010859  63.1761 297.0528 14.25973625401364
SL-16 R/B               
1 25407U 98045B   25170.31898111  .00000295  00000+0  17338-3 0  9991
2 25407  71.0116  15.4159 0005608  58.8230 301.3442 14.16142429390087
ISS (ZARYA)             
1 25544U 98067A   25170.53895367  .00046794  00000+0  81960-3 0  9997
2 25544  51.6363 295.4178 0001843 248.2712 220.6226 15.50118804515525
CZ-4B R/B               
1 25732U 99025C   25169.67574736  .00000052  00000+0  45910-4 0  9991
2 25732  98.6990 214.6374 0037590  25.5847  83.2829 14.18193020350744
OKEAN-O                 
1 25860U 99039A   25170.12318769  .00000546  00000+0  79469-4 0  9996
2 25860  97.9830 227.1084 0001976  97.3230 262.8206 14.79810670395499
SL-16 R/B               
1 25861U 99039B   25170.08911367  .00000464  00000+0  66388-4 0  9990
2 25861  98.0355 223.9703 0015694  36.8713 323.3575 14.81289128397969
DELTA 2 R/B             
1 25876U 99041E   25169.99900504  .00000408  00000+0  10445-3 0  9998
2 25876  51.7659 273.5532 0506306 290.7934  63.9473 14.10746468325816
HELIOS 1B               
1 25977U 99064A   25170.41283415  .00001130  00000+0  13431-3 0  9990
2 25977  98.1952  59.8331 0001382 133.2241 226.9089 14.86499111377439
TERRA                   
1 25994U 99068A   25170.50371306  .00000344  00000+0  79797-4 0  9994
2 25994  97.9977 228.3879 0001048 323.8467 148.0022 14.60713919356770
SL-16 R/B               
1 26070U 00006B   25169.70099743 -.00000212  00000+0 -83631-4 0  9994
2 26070  71.0032 292.8875 0018210 228.8688 131.0864 14.15777877311197
TITAN 4B R/B            
1 26474U 00047B   25169.63479039  .00002573  00000+0  17531-3 0  9994
2 26474  67.9904  61.5542 0045358 331.6442  28.2237 15.07231138353096
ENVISAT                 
1 27386U 02009A   25170.37576744  .00000091  00000+0  43275-4 0  9999
2 27386  98.3339 125.8837 0001351  89.2546  76.5670 14.38921888221379
IDEFIX & ARIANE 42P R/B 
1 27422U 02021B   25169.66533306  .00000210  00000+0  96809-4 0  9995
2 27422  98.5612 106.9023 0010704 243.1402 116.8687 14.30797127206263
AQUA                    
1 27424U 02022A   25170.53574181  .00000733  00000+0  15831-3 0  9997
2 27424  98.3780 128.9157 0001933  66.0190 357.7344 14.61310936230335
CZ-4B R/B               
1 27432U 02024C   25170.08355775  .00000030  00000+0  38207-4 0  9997
2 27432  98.9229 219.1937 0051009  52.0893 338.1689 14.14487533192058
MIDORI II (ADEOS-II)    
1 27597U 02056A   25169.72272913  .00000271  00000+0  12470-3 0  9995
2 27597  98.7381 122.0519 0002109  67.8170 292.3234 14.29053724172595
H-2A R/B                
1 27601U 02056E   25170.39675315  .00000209  00000+0  88407-4 0  9994
2 27601  98.2793 136.4746 0069462 225.7396 297.2113 14.33513930176368
CZ-4B R/B               
1 28059U 03049C   25169.69617316  .00000317  00000+0  84833-4 0  9992
2 28059  98.6590 149.7661 0047664 318.5594  41.1991 14.54690686148219
CZ-2C R/B               
1 28222U 04012C   25169.85836154  .00016547  00000+0  35472-3 0  9992
2 28222  97.7658 209.3922 0023436 186.0849 174.0117 15.44534832163348
